CCSDS_OMM_VERS = 2.0
CREATION_DATE  = 
ORIGINATOR     = 

OBJECT_NAME    = DELTA 2 R/B(1)
OBJECT_ID      = 1990-008B
CENTER_NAME    = EARTH
REF_FRAME      = TEME
TIME_SYSTEM    = UTC
MEAN_ELEMENT_THEORY = SGP/SGP4

EPOCH          = 2026-02-03T02:55:07.440096
MEAN_MOTION    = 15.51169393
ECCENTRICITY   = .0097433
INCLINATION    = 35.6063
RA_OF_ASC_NODE = 40.8837
ARG_OF_PERICENTER = 297.0669
MEAN_ANOMALY   = 62.0151

EPHEMERIS_TYPE = 0
CLASSIFICATION_TYPE = U
NORAD_CAT_ID   = 20453
ELEMENT_SET_NO = 999
REV_AT_EPOCH   = 92075
BSTAR          = .79965E-3
MEAN_MOTION_DOT = .59343E-3
MEAN_MOTION_DDOT = 0

CCSDS_OMM_VERS = 2.0
CREATION_DATE  = 
ORIGINATOR     = 

OBJECT_NAME    = COSMOS 2058
OBJECT_ID      = 1990-010A
CENTER_NAME    = EARTH
REF_FRAME      = TEME
TIME_SYSTEM    = UTC
MEAN_ELEMENT_THEORY = SGP/SGP4

EPOCH          = 2026-02-03T03:35:12.529248
MEAN_MOTION    = 15.10998598
ECCENTRICITY   = .001208
INCLINATION    = 82.4634
RA_OF_ASC_NODE = 81.4552
ARG_OF_PERICENTER = 93.2110
MEAN_ANOMALY   = 267.0502

EPHEMERIS_TYPE = 0
CLASSIFICATION_TYPE = U
NORAD_CAT_ID   = 20465
ELEMENT_SET_NO = 999
REV_AT_EPOCH   = 93702
BSTAR          = .21746E-3
MEAN_MOTION_DOT = .3665E-4
MEAN_MOTION_DDOT = 0

CCSDS_OMM_VERS = 2.0
CREATION_DATE  = 
ORIGINATOR     = 

OBJECT_NAME    = SL-14 R/B
OBJECT_ID      = 1990-010B
CENTER_NAME    = EARTH
REF_FRAME      = TEME
TIME_SYSTEM    = UTC
MEAN_ELEMENT_THEORY = SGP/SGP4

EPOCH          = 2026-02-03T03:41:38.822784
MEAN_MOTION    = 14.83536477
ECCENTRICITY   = .0021177
INCLINATION    = 82.5037
RA_OF_ASC_NODE = 299.8283
ARG_OF_PERICENTER = 56.1906
MEAN_ANOMALY   = 304.1321

EPHEMERIS_TYPE = 0
CLASSIFICATION_TYPE = U
NORAD_CAT_ID   = 20466
ELEMENT_SET_NO = 999
REV_AT_EPOCH   = 92336
BSTAR          = .59977E-4
MEAN_MOTION_DOT = .519E-5
MEAN_MOTION_DDOT = 0

CCSDS_OMM_VERS = 2.0
CREATION_DATE  = 
ORIGINATOR     = 

OBJECT_NAME    = SL-14 R/B
OBJECT_ID      = 1990-018B
CENTER_NAME    = EARTH
REF_FRAME      = TEME
TIME_SYSTEM    = UTC
MEAN_ELEMENT_THEORY = SGP/SGP4

EPOCH          = 2026-02-03T01:42:04.080384
MEAN_MOTION    = 14.82108521
ECCENTRICITY   = .001575
INCLINATION    = 82.5188
RA_OF_ASC_NODE = 255.4550
ARG_OF_PERICENTER = 201.3854
MEAN_ANOMALY   = 158.6704

EPHEMERIS_TYPE = 0
CLASSIFICATION_TYPE = U
NORAD_CAT_ID   = 20511
ELEMENT_SET_NO = 999
REV_AT_EPOCH   = 91745
BSTAR          = .49173E-4
MEAN_MOTION_DOT = .415E-5
MEAN_MOTION_DDOT = 0

CCSDS_OMM_VERS = 2.0
CREATION_DATE  = 
ORIGINATOR     = 

OBJECT_NAME    = HST
OBJECT_ID      = 1990-037B
CENTER_NAME    = EARTH
REF_FRAME      = TEME
TIME_SYSTEM    = UTC
MEAN_ELEMENT_THEORY = SGP/SGP4

EPOCH          = 2026-02-02T23:05:35.240352
MEAN_MOTION    = 15.28919278
ECCENTRICITY   = .0002014
INCLINATION    = 28.4669
RA_OF_ASC_NODE = 276.8051
ARG_OF_PERICENTER = 87.5002
MEAN_ANOMALY   = 272.5824

EPHEMERIS_TYPE = 0
CLASSIFICATION_TYPE = U
NORAD_CAT_ID   = 20580
ELEMENT_SET_NO = 999
REV_AT_EPOCH   = 76799
BSTAR          = .27848E-3
MEAN_MOTION_DOT = .8282E-4
MEAN_MOTION_DDOT = 0

CCSDS_OMM_VERS = 2.0
CREATION_DATE  = 
ORIGINATOR     = 

OBJECT_NAME    = SL-16 R/B
OBJECT_ID      = 1990-046B
CENTER_NAME    = EARTH
REF_FRAME      = TEME
TIME_SYSTEM    = UTC
MEAN_ELEMENT_THEORY = SGP/SGP4

EPOCH          = 2026-02-03T04:47:22.835904
MEAN_MOTION    = 14.15004923
ECCENTRICITY   = .0014466
INCLINATION    = 70.9995
RA_OF_ASC_NODE = 10.3461
ARG_OF_PERICENTER = 347.5003
MEAN_ANOMALY   = 12.5759

EPHEMERIS_TYPE = 0
CLASSIFICATION_TYPE = U
NORAD_CAT_ID   = 20625
ELEMENT_SET_NO = 999
REV_AT_EPOCH   = 84351
BSTAR          = -.26564E-4
MEAN_MOTION_DOT = -.99E-6
MEAN_MOTION_DDOT = 0

CCSDS_OMM_VERS = 2.0
CREATION_DATE  = 
ORIGINATOR     = 

OBJECT_NAME    = COSMOS 2084
OBJECT_ID      = 1990-055A
CENTER_NAME    = EARTH
REF_FRAME      = TEME
TIME_SYSTEM    = UTC
MEAN_ELEMENT_THEORY = SGP/SGP4

EPOCH          = 2026-02-03T04:24:37.397952
MEAN_MOTION    = 15.05422842
ECCENTRICITY   = .0022624
INCLINATION    = 62.7897
RA_OF_ASC_NODE = 93.2465
ARG_OF_PERICENTER = 182.9838
MEAN_ANOMALY   = 177.1132

EPHEMERIS_TYPE = 0
CLASSIFICATION_TYPE = U
NORAD_CAT_ID   = 20663
ELEMENT_SET_NO = 999
REV_AT_EPOCH   = 93112
BSTAR          = .19419E-3
MEAN_MOTION_DOT = .2612E-4
MEAN_MOTION_DDOT = 0

CCSDS_OMM_VERS = 2.0
CREATION_DATE  = 
ORIGINATOR     = 

OBJECT_NAME    = SL-6 R/B(2)
OBJECT_ID      = 1990-055D
CENTER_NAME    = EARTH
REF_FRAME      = TEME
TIME_SYSTEM    = UTC
MEAN_ELEMENT_THEORY = SGP/SGP4

EPOCH          = 2026-02-03T02:52:30.043488
MEAN_MOTION    = 15.03398492
ECCENTRICITY   = .0019632
INCLINATION    = 62.7843
RA_OF_ASC_NODE = 11.3925
ARG_OF_PERICENTER = 336.7888
MEAN_ANOMALY   = 23.2322

EPHEMERIS_TYPE = 0
CLASSIFICATION_TYPE = U
NORAD_CAT_ID   = 20666
ELEMENT_SET_NO = 999
REV_AT_EPOCH   = 93299
BSTAR          = .21277E-3
MEAN_MOTION_DOT = .2719E-4
MEAN_MOTION_DDOT = 0

CCSDS_OMM_VERS = 2.0
CREATION_DATE  = 
ORIGINATOR     = 

OBJECT_NAME    = SL-8 R/B
OBJECT_ID      = 1990-078B
CENTER_NAME    = EARTH
REF_FRAME      = TEME
TIME_SYSTEM    = UTC
MEAN_ELEMENT_THEORY = SGP/SGP4

EPOCH          = 2026-02-03T03:45:31.224096
MEAN_MOTION    = 14.87901448
ECCENTRICITY   = .0367517
INCLINATION    = 82.9035
RA_OF_ASC_NODE = 282.3374
ARG_OF_PERICENTER = 129.6785
MEAN_ANOMALY   = 233.7467

EPHEMERIS_TYPE = 0
CLASSIFICATION_TYPE = U
NORAD_CAT_ID   = 20775
ELEMENT_SET_NO = 999
REV_AT_EPOCH   = 80416
BSTAR          = .4961E-3
MEAN_MOTION_DOT = .16758E-3
MEAN_MOTION_DDOT = 0

CCSDS_OMM_VERS = 2.0
CREATION_DATE  = 
ORIGINATOR     = 

OBJECT_NAME    = SL-8 R/B
OBJECT_ID      = 1991-006B
CENTER_NAME    = EARTH
REF_FRAME      = TEME
TIME_SYSTEM    = UTC
MEAN_ELEMENT_THEORY = SGP/SGP4

EPOCH          = 2026-02-02T12:59:31.929792
MEAN_MOTION    = 13.77491935
ECCENTRICITY   = .00234123
INCLINATION    = 82.9426
RA_OF_ASC_NODE = 196.1791
ARG_OF_PERICENTER = 131.8537
MEAN_ANOMALY   = 291.9307

EPHEMERIS_TYPE = 0
CLASSIFICATION_TYPE = U
NORAD_CAT_ID   = 21088
ELEMENT_SET_NO = 999
REV_AT_EPOCH   = 75923
BSTAR          = -.5520385E-5
MEAN_MOTION_DOT = .1E-6
MEAN_MOTION_DDOT = 0

CCSDS_OMM_VERS = 2.0
CREATION_DATE  = 
ORIGINATOR     = 

OBJECT_NAME    = OKEAN-3
OBJECT_ID      = 1991-039A
CENTER_NAME    = EARTH
REF_FRAME      = TEME
TIME_SYSTEM    = UTC
MEAN_ELEMENT_THEORY = SGP/SGP4

EPOCH          = 2026-02-02T21:33:59.472000
MEAN_MOTION    = 15.04522786
ECCENTRICITY   = .0016251
INCLINATION    = 82.5178
RA_OF_ASC_NODE = 10.5378
ARG_OF_PERICENTER = 89.7168
MEAN_ANOMALY   = 270.5921

EPHEMERIS_TYPE = 0
CLASSIFICATION_TYPE = U
NORAD_CAT_ID   = 21397
ELEMENT_SET_NO = 999
REV_AT_EPOCH   = 85980
BSTAR          = .23601E-3
MEAN_MOTION_DOT = .3342E-4
MEAN_MOTION_DDOT = 0

CCSDS_OMM_VERS = 2.0
CREATION_DATE  = 
ORIGINATOR     = 

OBJECT_NAME    = COSMOS 2151
OBJECT_ID      = 1991-042A
CENTER_NAME    = EARTH
REF_FRAME      = TEME
TIME_SYSTEM    = UTC
MEAN_ELEMENT_THEORY = SGP/SGP4

EPOCH          = 2026-02-03T04:42:04.617792
MEAN_MOTION    = 14.99966529
ECCENTRICITY   = .001289
INCLINATION    = 82.4974
RA_OF_ASC_NODE = 116.9477
ARG_OF_PERICENTER = 169.7353
MEAN_ANOMALY   = 190.4137

EPHEMERIS_TYPE = 0
CLASSIFICATION_TYPE = U
NORAD_CAT_ID   = 21422
ELEMENT_SET_NO = 999
REV_AT_EPOCH   = 85802
BSTAR          = .13751E-3
MEAN_MOTION_DOT = .1737E-4
MEAN_MOTION_DDOT = 0

