DELTA 2 R/B(1)          
1 20453U 90008B   26034.12161389  .00059343  00000+0  79965-3 0  9999
2 20453  35.6063  40.8837 0097433 297.0669  62.0151 15.51169393920755
COSMOS 2058             
1 20465U 90010A   26034.14945057  .00003665  00000+0  21746-3 0  9999
2 20465  82.4634  81.4552 0012080  93.2110 267.0502 15.10998598937026
SL-14 R/B               
1 20466U 90010B   26034.15392156  .00000519  00000+0  59977-4 0  9990
2 20466  82.5037 299.8283 0021177  56.1906 304.1321 14.83536477923366
SL-14 R/B               
1 20511U 90018B   26034.07088056  .00000415  00000+0  49173-4 0  9993
2 20511  82.5188 255.4550 0015750 201.3854 158.6704 14.82108521917459
HST                     
1 20580U 90037B   26033.96221343  .00008282  00000+0  27848-3 0  9999
2 20580  28.4669 276.8051 0002014  87.5002 272.5824 15.28919278767990
SL-16 R/B               
1 20625U 90046B   26034.19956986 -.00000099  00000+0 -26564-4 0  9998
2 20625  70.9995  10.3461 0014466 347.5003  12.5759 14.15004923843513
COSMOS 2084             
1 20663U 90055A   26034.18376618  .00002612  00000+0  19419-3 0  9998
2 20663  62.7897  93.2465 0022624 182.9838 177.1132 15.05422842931123
SL-6 R/B(2)             
1 20666U 90055D   26034.11979217  .00002719  00000+0  21277-3 0  9991
2 20666  62.7843  11.3925 0019632 336.7888  23.2322 15.03398492932997
SL-8 R/B                
1 20775U 90078B   26034.15661139  .00016758  00000+0  49610-3 0  9991
2 20775  82.9035 282.3374 0367517 129.6785 233.7467 14.87901448804163
SL-8 R/B                
1 21088U 91006B   26033.54134178  .00000010  00000+0 -55204-5 0  9994
2 21088  82.9426 196.1791 0023412 131.8537 291.9307 13.77491935759232
OKEAN-3                 
1 21397U 91039A   26033.89860500  .00003342  00000+0  23601-3 0  9990
2 21397  82.5178  10.5378 0016251  89.7168 270.5921 15.04522786859809
COSMOS 2151             
1 21422U 91042A   26034.19588678  .00001737  00000+0  13751-3 0  9991
2 21422  82.4974 116.9477 0012890 169.7353 190.4137 14.99966529858024
